[{"OBJECT_NAME":"ICEYE-X39","OBJECT_ID":"2024-149CG","EPOCH":"2026-03-09T17:17:30.183072","MEAN_MOTION":14.99225125,"ECCENTRICITY":0.0005274,"INCLINATION":97.6853,"RA_OF_ASC_NODE":147.0953,"ARG_OF_PERICENTER":52.5538,"MEAN_ANOMALY":307.6164,"EPHEMERIS_TYPE":0,"CLASSIFICATION_TYPE":"U","NORAD_CAT_ID":60546,"ELEMENT_SET_NO":999,"REV_AT_EPOCH":8521,"BSTAR":0.00029320082,"MEAN_MOTION_DOT":3.515e-5,"MEAN_MOTION_DDOT":0},{"OBJECT_NAME":"STARLINK-36084","OBJECT_ID":"2025-280J","EPOCH":"2026-03-09T22:21:12.154752","MEAN_MOTION":14.98330561,"ECCENTRICITY":0.0002624,"INCLINATION":70.0029,"RA_OF_ASC_NODE":333.7835,"ARG_OF_PERICENTER":261.2566,"MEAN_ANOMALY":98.8296,"EPHEMERIS_TYPE":0,"CLASSIFICATION_TYPE":"U","NORAD_CAT_ID":66829,"ELEMENT_SET_NO":999,"REV_AT_EPOCH":1611,"BSTAR":0.00053936886,"MEAN_MOTION_DOT":6.349e-5,"MEAN_MOTION_DDOT":0}]
